[{"OBJECT_NAME":"RIGIDSPHERE 2 (LCS 4)","OBJECT_ID":"1971-067E","EPOCH":"2026-03-09T21:07:13.855872","MEAN_MOTION":14.3774295,"ECCENTRICITY":0.00588572,"INCLINATION":87.6274,"RA_OF_ASC_NODE":6.3575,"ARG_OF_PERICENTER":200.3798,"MEAN_ANOMALY":159.5053,"EPHEMERIS_TYPE":0,"CLASSIFICATION_TYPE":"U","NORAD_CAT_ID":5398,"ELEMENT_SET_NO":999,"REV_AT_EPOCH":85961,"BSTAR":0.00030050164,"MEAN_MOTION_DOT":9.4e-6,"MEAN_MOTION_DDOT":0},{"OBJECT_NAME":"SL-8 R\/B","OBJECT_ID":"1980-056B","EPOCH":"2026-03-09T12:54:43.878240","MEAN_MOTION":14.38387207,"ECCENTRICITY":0.00163518,"INCLINATION":74.0516,"RA_OF_ASC_NODE":110.3999,"ARG_OF_PERICENTER":344.8852,"MEAN_ANOMALY":15.1811,"EPHEMERIS_TYPE":0,"CLASSIFICATION_TYPE":"U","NORAD_CAT_ID":11870,"ELEMENT_SET_NO":999,"REV_AT_EPOCH":36887,"BSTAR":7.4478101e-5,"MEAN_MOTION_DOT":2.01e-6,"MEAN_MOTION_DDOT":0}]
